start=new Date('2022-03-02T00:00:00.000Z').valueOf();
sats=[{"TLE_LINE2":"2 47803  53.0557 348.5034 0002035  56.9708 303.1476 15.06405073 55387","ELEMENT_SET_NO":"999","MEAN_MOTION_DOT":"0.00002983","EPOCH":"2022-03-01T04:21:04.721760","NORAD_CAT_ID":"47803","PERIOD":"95.592","ECCENTRICITY":"0.00020350","REF_FRAME":"TEME","TIME_SYSTEM":"UTC","SEMIMAJOR_AXIS":"6925.333","REV_AT_EPOCH":"5538","INCLINATION":"53.0557","CLASSIFICATION_TYPE":"U","OBJECT_ID":"2021-018S","PERIAPSIS":"545.789","TLE_LINE1":"1 47803U 21018S   22060.18130465  .00002983  00000-0  21908-3 0  9997","EPHEMERIS_TYPE":"0","COUNTRY_CODE":"US","MEAN_MOTION_DDOT":"0.0000000000000","BSTAR":"0.00021908000000","FILE":"3337314","GP_ID":"197489625","SITE":"AFETR","MEAN_ANOMALY":"303.1476","OBJECT_TYPE":"PAYLOAD","APOAPSIS":"548.607","RCS_SIZE":"LARGE","DECAY_DATE":null,"MEAN_ELEMENT_THEORY":"SGP4","OBJECT_NAME":"STARLINK-2384","CENTER_NAME":"EARTH","ARG_OF_PERICENTER":"56.9708","MEAN_MOTION":"15.06405073","RA_OF_ASC_NODE":"348.5034","LAUNCH_DATE":"2021-03-11"},{"RA_OF_ASC_NODE":"345.1562","LAUNCH_DATE":"2021-03-11","CENTER_NAME":"EARTH","OBJECT_NAME":"STARLINK-2385","ARG_OF_PERICENTER":"69.9832","MEAN_MOTION":"15.06342468","APOAPSIS":"548.269","RCS_SIZE":"LARGE","DECAY_DATE":null,"MEAN_ELEMENT_THEORY":"SGP4","BSTAR":"0.00091823000000","FILE":"3338635","GP_ID":"197541839","MEAN_ANOMALY":"290.1294","SITE":"AFETR","OBJECT_TYPE":"PAYLOAD","PERIAPSIS":"546.511","COUNTRY_CODE":"US","TLE_LINE1":"1 47804U 21018T   22060.92588707  .00013401  00000-0  91823-3 0  9996","EPHEMERIS_TYPE":"0","MEAN_MOTION_DDOT":"0.0000000000000","TIME_SYSTEM":"UTC","SEMIMAJOR_AXIS":"6925.525","INCLINATION":"53.0571","REV_AT_EPOCH":"5549","CLASSIFICATION_TYPE":"U","OBJECT_ID":"2021-018T","NORAD_CAT_ID":"47804","PERIOD":"95.596","ECCENTRICITY":"0.00012690","REF_FRAME":"TEME","TLE_LINE2":"2 47804  53.0571 345.1562 0001269  69.9832 290.1294 15.06342468 55496","ELEMENT_SET_NO":"999","MEAN_MOTION_DOT":"0.00013401","EPOCH":"2022-03-01T22:13:16.642848"},{"MEAN_MOTION_DDOT":"0.0000000000000","EPHEMERIS_TYPE":"0","TLE_LINE1":"1 47805U 21018U   22060.86962991 -.00000342  00000-0 -40677-5 0  9996","COUNTRY_CODE":"US","PERIAPSIS":"545.995","OBJECT_ID":"2021-018U","CLASSIFICATION_TYPE":"U","REV_AT_EPOCH":"5549","INCLINATION":"53.0561","SEMIMAJOR_AXIS":"6925.363","TIME_SYSTEM":"UTC","REF_FRAME":"TEME","PERIOD":"95.592","ECCENTRICITY":"0.00017800","NORAD_CAT_ID":"47805","EPOCH":"2022-03-01T20:52:16.024224","MEAN_MOTION_DOT":"-0.00000342","ELEMENT_SET_NO":"999","TLE_LINE2":"2 47805  53.0561 345.4023 0001780  58.7142 301.4021 15.06395434 55494","LAUNCH_DATE":"2021-03-11","RA_OF_ASC_NODE":"345.4023","MEAN_MOTION":"15.06395434","ARG_OF_PERICENTER":"58.7142","OBJECT_NAME":"STARLINK-2386","CENTER_NAME":"EARTH","MEAN_ELEMENT_THEORY":"SGP4","RCS_SIZE":"LARGE","DECAY_DATE":null,"APOAPSIS":"548.460","OBJECT_TYPE":"PAYLOAD","SITE":"AFETR","MEAN_ANOMALY":"301.4021","GP_ID":"197542089","FILE":"3338635","BSTAR":"-0.00000406770000"},{"LAUNCH_DATE":"2021-03-11","RA_OF_ASC_NODE":"2.9736","MEAN_MOTION":"15.06403359","ARG_OF_PERICENTER":"55.8379","CENTER_NAME":"EARTH","OBJECT_NAME":"STARLINK-2387","MEAN_ELEMENT_THEORY":"SGP4","RCS_SIZE":"LARGE","DECAY_DATE":null,"APOAPSIS":"548.598","OBJECT_TYPE":"PAYLOAD","MEAN_ANOMALY":"304.2801","SITE":"AFETR","GP_ID":"197491375","FILE":"3337314","BSTAR":"0.00011084000000","MEAN_MOTION_DDOT":"0.0000000000000","EPHEMERIS_TYPE":"0","TLE_LINE1":"1 47806U 21018V   22060.29876959  .00001370  00000-0  11084-3 0  9990","COUNTRY_CODE":"US","PERIAPSIS":"545.808","OBJECT_ID":"2021-018V","CLASSIFICATION_TYPE":"U","REV_AT_EPOCH":"5525","INCLINATION":"53.0549","SEMIMAJOR_AXIS":"6925.338","TIME_SYSTEM":"UTC","REF_FRAME":"TEME","PERIOD":"95.592","ECCENTRICITY":"0.00020140","NORAD_CAT_ID":"47806","EPOCH":"2022-03-01T07:10:13.692576","MEAN_MOTION_DOT":"0.00001370","ELEMENT_SET_NO":"999","TLE_LINE2":"2 47806  53.0549   2.9736 0002014  55.8379 304.2801 15.06403359 55255"},{"MEAN_MOTION":"15.06404928","CENTER_NAME":"EARTH","OBJECT_NAME":"STARLINK-2388","ARG_OF_PERICENTER":"56.7709","LAUNCH_DATE":"2021-03-11","RA_OF_ASC_NODE":"335.9271","GP_ID":"197542592","MEAN_ANOMALY":"303.3465","SITE":"AFETR","OBJECT_TYPE":"PAYLOAD","BSTAR":"0.00025339000000","FILE":"3338635","MEAN_ELEMENT_THEORY":"SGP4","APOAPSIS":"548.539","RCS_SIZE":"LARGE","DECAY_DATE":null,"CLASSIFICATION_TYPE":"U","OBJECT_ID":"2021-018W","TIME_SYSTEM":"UTC","SEMIMAJOR_AXIS":"6925.333","INCLINATION":"53.0569","REV_AT_EPOCH":"5560","MEAN_MOTION_DDOT":"0.0000000000000","PERIAPSIS":"545.858","TLE_LINE1":"1 47807U 21018W   22060.75354591  .00003495  00000-0  25339-3 0  9993","COUNTRY_CODE":"US","EPHEMERIS_TYPE":"0","MEAN_MOTION_DOT":"0.00003495","EPOCH":"2022-03-01T18:05:06.366624","TLE_LINE2":"2 47807  53.0569 335.9271 0001935  56.7709 303.3465 15.06404928 55607","ELEMENT_SET_NO":"999","PERIOD":"95.592","ECCENTRICITY":"0.00019350","REF_FRAME":"TEME","NORAD_CAT_ID":"47807"},{"NORAD_CAT_ID":"47808","ECCENTRICITY":"0.00018120","PERIOD":"95.593","REF_FRAME":"TEME","TLE_LINE2":"2 47808  53.0556   0.5157 0001812  67.7049 292.4132 15.06390275 55333","ELEMENT_SET_NO":"999","EPOCH":"2022-03-01T20:22:26.690592","MEAN_MOTION_DOT":"0.00001081","COUNTRY_CODE":"US","TLE_LINE1":"1 47808U 21018X   22060.84892003  .00001081  00000-0  91486-4 0  9995","EPHEMERIS_TYPE":"0","PERIAPSIS":"545.988","MEAN_MOTION_DDOT":"0.0000000000000","SEMIMAJOR_AXIS":"6925.378","TIME_SYSTEM":"UTC","REV_AT_EPOCH":"5533","INCLINATION":"53.0556","CLASSIFICATION_TYPE":"U","OBJECT_ID":"2021-018X","APOAPSIS":"548.498","DECAY_DATE":null,"RCS_SIZE":"LARGE","MEAN_ELEMENT_THEORY":"SGP4","FILE":"3338635","BSTAR":"0.00009148600000","MEAN_ANOMALY":"292.4132","SITE":"AFETR","GP_ID":"197541340","OBJECT_TYPE":"PAYLOAD","RA_OF_ASC_NODE":"0.5157","LAUNCH_DATE":"2021-03-11","ARG_OF_PERICENTER":"67.7049","OBJECT_NAME":"STARLINK-2389","CENTER_NAME":"EARTH","MEAN_MOTION":"15.06390275"},{"MEAN_ELEMENT_THEORY":"SGP4","RCS_SIZE":"LARGE","DECAY_DATE":null,"APOAPSIS":"548.428","OBJECT_TYPE":"PAYLOAD","SITE":"AFETR","MEAN_ANOMALY":"298.5709","GP_ID":"197541590","FILE":"3338635","BSTAR":"0.00006176300000","LAUNCH_DATE":"2021-03-11","RA_OF_ASC_NODE":"5.4715","MEAN_MOTION":"15.06402541","ARG_OF_PERICENTER":"61.5458","OBJECT_NAME":"STARLINK-2390","CENTER_NAME":"EARTH","REF_FRAME":"TEME","PERIOD":"95.592","ECCENTRICITY":"0.00017650","NORAD_CAT_ID":"47809","EPOCH":"2022-03-01T20:29:44.349792","MEAN_MOTION_DOT":"0.00000639","ELEMENT_SET_NO":"999","TLE_LINE2":"2 47809  53.0558   5.4715 0001765  61.5458 298.5709 15.06402541 55262","MEAN_MOTION_DDOT":"0.0000000000000","TLE_LINE1":"1 47809U 21018Y   22060.85398553  .00000639  00000-0  61763-4 0  9991","EPHEMERIS_TYPE":"0","COUNTRY_CODE":"US","PERIAPSIS":"545.983","OBJECT_ID":"2021-018Y","CLASSIFICATION_TYPE":"U","INCLINATION":"53.0558","REV_AT_EPOCH":"5526","SEMIMAJOR_AXIS":"6925.341","TIME_SYSTEM":"UTC"},{"PERIOD":"95.592","ECCENTRICITY":"0.00016810","REF_FRAME":"TEME","NORAD_CAT_ID":"47810","MEAN_MOTION_DOT":"-0.00000059","EPOCH":"2022-03-01T21:05:34.020672","TLE_LINE2":"2 47810  53.0563  15.3761 0001681  62.1990 297.9169 15.06396565 55122","ELEMENT_SET_NO":"999","MEAN_MOTION_DDOT":"0.0000000000000","PERIAPSIS":"546.060","TLE_LINE1":"1 47810U 21018Z   22060.87886598 -.00000059  00000-0  14946-4 0  9994","COUNTRY_CODE":"US","EPHEMERIS_TYPE":"0","CLASSIFICATION_TYPE":"U","OBJECT_ID":"2021-018Z","TIME_SYSTEM":"UTC","SEMIMAJOR_AXIS":"6925.359","REV_AT_EPOCH":"5512","INCLINATION":"53.0563","MEAN_ELEMENT_THEORY":"SGP4","APOAPSIS":"548.388","RCS_SIZE":"LARGE","DECAY_DATE":null,"GP_ID":"197542841","SITE":"AFETR","MEAN_ANOMALY":"297.9169","OBJECT_TYPE":"PAYLOAD","BSTAR":"0.00001494600000","FILE":"3338635","LAUNCH_DATE":"2021-03-11","RA_OF_ASC_NODE":"15.3761","MEAN_MOTION":"15.06396565","CENTER_NAME":"EARTH","OBJECT_NAME":"STARLINK-2391","ARG_OF_PERICENTER":"62.1990"},{"RA_OF_ASC_NODE":"345.7933","LAUNCH_DATE":"2021-03-11","ARG_OF_PERICENTER":"50.4558","OBJECT_NAME":"STARLINK-2392","CENTER_NAME":"EARTH","MEAN_MOTION":"15.06398678","DECAY_DATE":null,"RCS_SIZE":"LARGE","APOAPSIS":"548.878","MEAN_ELEMENT_THEORY":"SGP4","FILE":"3338635","BSTAR":"0.00014880000000","OBJECT_TYPE":"PAYLOAD","SITE":"AFETR","MEAN_ANOMALY":"309.6642","GP_ID":"197543092","COUNTRY_CODE":"US","TLE_LINE1":"1 47811U 21018AA  22060.78580204  .00001935  00000-0  14880-3 0  9999","EPHEMERIS_TYPE":"0","PERIAPSIS":"545.558","MEAN_MOTION_DDOT":"0.0000000000000","REV_AT_EPOCH":"5553","INCLINATION":"53.0553","SEMIMAJOR_AXIS":"6925.353","TIME_SYSTEM":"UTC","OBJECT_ID":"2021-018AA","CLASSIFICATION_TYPE":"U","NORAD_CAT_ID":"47811","REF_FRAME":"TEME","PERIOD":"95.592","ECCENTRICITY":"0.00023970","ELEMENT_SET_NO":"999","TLE_LINE2":"2 47811  53.0553 345.7933 0002397  50.4558 309.6642 15.06398678 55537","EPOCH":"2022-03-01T18:51:33.296256","MEAN_MOTION_DOT":"0.00001935"},{"NORAD_CAT_ID":"47812","REF_FRAME":"TEME","PERIOD":"95.592","ECCENTRICITY":"0.00016970","ELEMENT_SET_NO":"999","TLE_LINE2":"2 47812  53.0574  15.3174 0001697  59.0590 301.0566 15.06396843 55062","EPOCH":"2022-03-01T21:21:29.629728","MEAN_MOTION_DOT":"0.00000401","COUNTRY_CODE":"US","TLE_LINE1":"1 47812U 21018AB  22060.88992627  .00000401  00000-0  45830-4 0  9994","EPHEMERIS_TYPE":"0","PERIAPSIS":"546.048","MEAN_MOTION_DDOT":"0.0000000000000","REV_AT_EPOCH":"5506","INCLINATION":"53.0574","SEMIMAJOR_AXIS":"6925.358","TIME_SYSTEM":"UTC","OBJECT_ID":"2021-018AB","CLASSIFICATION_TYPE":"U","DECAY_DATE":null,"RCS_SIZE":"LARGE","APOAPSIS":"548.398","MEAN_ELEMENT_THEORY":"SGP4","FILE":"3338635","BSTAR":"0.00004583000000","OBJECT_TYPE":"PAYLOAD","MEAN_ANOMALY":"301.0566","SITE":"AFETR","GP_ID":"197541840","RA_OF_ASC_NODE":"15.3174","LAUNCH_DATE":"2021-03-11","ARG_OF_PERICENTER":"59.0590","OBJECT_NAME":"STARLINK-2393","CENTER_NAME":"EARTH","MEAN_MOTION":"15.06396843"}];
